[{"OBJECT_NAME":"OBJECT E","OBJECT_ID":"2024-092E","EPOCH":"2026-03-09T21:25:47.709120","MEAN_MOTION":15.32997986,"ECCENTRICITY":0.0008531,"INCLINATION":97.642,"RA_OF_ASC_NODE":198.2099,"ARG_OF_PERICENTER":142.2606,"MEAN_ANOMALY":217.9236,"EPHEMERIS_TYPE":0,"CLASSIFICATION_TYPE":"U","NORAD_CAT_ID":59777,"ELEMENT_SET_NO":999,"REV_AT_EPOCH":10051,"BSTAR":0.00078641119,"MEAN_MOTION_DOT":0.00025066,"MEAN_MOTION_DDOT":0},{"OBJECT_NAME":"STARLINK-33614","OBJECT_ID":"2025-063K","EPOCH":"2026-03-09T22:32:32.106336","MEAN_MOTION":15.30211631,"ECCENTRICITY":0.00014776,"INCLINATION":53.1615,"RA_OF_ASC_NODE":48.7489,"ARG_OF_PERICENTER":67.0308,"MEAN_ANOMALY":293.0849,"EPHEMERIS_TYPE":0,"CLASSIFICATION_TYPE":"U","NORAD_CAT_ID":63372,"ELEMENT_SET_NO":999,"REV_AT_EPOCH":5483,"BSTAR":0.00097506618,"MEAN_MOTION_DOT":0.00028641,"MEAN_MOTION_DDOT":0}]
